[{"OBJECT_NAME":"STARLINK-2130","OBJECT_ID":"2021-005BJ","EPOCH":"2026-03-09T22:00:01.999584","MEAN_MOTION":15.13281919,"ECCENTRICITY":9.04e-5,"INCLINATION":53.0824,"RA_OF_ASC_NODE":60.4652,"ARG_OF_PERICENTER":98.9543,"MEAN_ANOMALY":231.3183,"EPHEMERIS_TYPE":0,"CLASSIFICATION_TYPE":"U","NORAD_CAT_ID":47405,"ELEMENT_SET_NO":999,"REV_AT_EPOCH":577,"BSTAR":0.0047989854,"MEAN_MOTION_DOT":0.0008714,"MEAN_MOTION_DDOT":0},{"OBJECT_NAME":"PIESAT A","OBJECT_ID":"2023-047A","EPOCH":"2026-03-09T13:45:37.273248","MEAN_MOTION":15.14302818,"ECCENTRICITY":0.0002367,"INCLINATION":97.5034,"RA_OF_ASC_NODE":257.1452,"ARG_OF_PERICENTER":89.923,"MEAN_ANOMALY":270.2273,"EPHEMERIS_TYPE":0,"CLASSIFICATION_TYPE":"U","NORAD_CAT_ID":56153,"ELEMENT_SET_NO":999,"REV_AT_EPOCH":16272,"BSTAR":0.00032318,"MEAN_MOTION_DOT":5.852e-5,"MEAN_MOTION_DDOT":0}]
